#aV2007  7 22  0  0   .00000000      96 DD+AD WGS84 FIT  NGA
## 1437       .00000000   900.00000000 54303  .0000000000000
+   31     1  2  3  4  5  6  7  8  9 10 11 12 13 14 16 17 18
+         19 20 21 22 23 24 25 26 27 28 29 30 31 32  0  0  0
+          0  0  0  0  0  0  0  0  0  0  0  0  0  0  0  0  0
+          0  0  0  0  0  0  0  0  0  0  0  0  0  0  0  0  0
+          0  0  0  0  0  0  0  0  0  0  0  0  0  0  0  0  0
++         0  0  0  0  0  0  0  0  0  0  0  0  0  0  0  0  0
++         0  0  0  0  0  0  0  0  0  0  0  0  0  0  0  0  0
++         0  0  0  0  0  0  0  0  0  0  0  0  0  0  0  0  0
++         0  0  0  0  0  0  0  0  0  0  0  0  0  0  0  0  0
++         0  0  0  0  0  0  0  0  0  0  0  0  0  0  0  0  0
%c cc cc ccc ccc cccc cccc cccc cccc ccccc ccccc ccccc ccccc
%c cc cc ccc ccc cccc cccc cccc cccc ccccc ccccc ccccc ccccc
%f  0.0000000  0.000000000  0.00000000000  0.000000000000000
%f  0.0000000  0.000000000  0.00000000000  0.000000000000000
%i    0    0    0    0      0      0      0      0         0
%i    0    0    0    0      0      0      0      0         0
/*      NGA, ST. LOUIS,MO.                                  
/*   EPHEMERIS COMPUTED FROM  3 DAYS OF DATA                
/* CCCCCCCCCCCCCCCCCCCCCCCCCCCCCCCCCCCCCCCCCCCCCCCCCCCCCCCCC
/* CCCCCCCCCCCCCCCCCCCCCCCCCCCCCCCCCCCCCCCCCCCCCCCCCCCCCCCCC
*  2007  7 22  3 15   .00000000                                                 
P  1  18245.618212  15329.877327  12003.008075    141.326205                    
V  1 -14408.306036  -3883.262626  27264.434984       .022553                    
P  2 -13334.156938 -19815.569606 -12126.699141    123.325631                    
V  2   -831.941411 -15188.709657  25871.795016       .028202                    
P  3  23494.075862  10648.062605  -7246.537977     90.061444                    
V  3  -9400.178627   1419.953011 -28912.137357       .055094                    
P  4  -6296.227591 -25555.291189  -1587.130981      5.630906                    
V  4   3161.182817  -2636.126525  31550.640296      -.017032                    
P  5 -20789.533798  14577.458144   7278.057118    206.338207                    
V  5   4045.686329  -9388.335816  29522.254518       .437137                    
P  6 -16049.811489   9786.304450 -18587.346690    238.194894                    
V  6 -22688.615306  -8270.579367  15045.206378       .050792                    
P  7 -13190.506191  11579.569965 -19600.657886    191.893747                    
V  7 -24588.274395  -7711.732483  11731.555713      -.206630                    
P  8   1210.790278 -25129.345816  -7875.400778   -115.870927                    
V  8   4018.969967   9418.645278 -30298.560789      -.015147                    
P  9 -15144.721865    -96.690575  21234.050005     79.705947                    
V  9  -6662.117456 -27578.108022  -4541.806378       .016390                    
P 10 -13978.959861  -7452.994727 -21480.474374    105.114253                    
V 10  20159.480848 -17854.955447  -6651.513857       .005932                    
P 11  16468.242808  -3266.791322  20494.133067     20.897210                    
V 11   9524.908626  24802.973143  -3379.718733       .007165                    
P 12 -22052.978371   8662.164340  12036.668680    -50.182617                    
V 12   9658.191078 -11901.739386  26548.380847      -.011549                    
P 13  15131.215751  -8468.301805 -20215.875560    191.901892                    
V 13  23575.580309   9364.822405  13825.105694       .031685                    
P 14   5118.429565  16120.825635  20583.930181     31.231186                    
V 14 -24645.825267  -7836.496743  12228.899990       .020404                    
P 16   8901.296715  12253.338104 -21733.368225    164.248908                    
V 16 -21026.259164  18162.145689   1777.308899       .025931                    
P 17  -2714.018370 -16288.893114  20848.568616     60.377535                    
V 17  25308.310932   7568.151288   9084.536144      -.012290                    
P 18 -16129.705997  19769.790869   6832.794595   -243.515249                    
V 18  -8630.783717   3045.023228 -30170.279283       .013457                    
P 19  25404.517585   6689.104111   4464.452851     52.525831                    
V 19   4122.559241   4594.466698 -30919.671280       .028881                    
P 20  22046.213216 -11293.659704   9439.353830    -27.087761                    
V 20  -6983.461645  10348.836235  28405.885037      -.004839                    
P 21  -7484.333079  20201.342690 -15004.433362     78.669072                    
V 21  -6390.341122 -18749.364882 -22443.255819       .000292                    
P 22  -5560.180278  20007.155460  16692.371296    191.633041                    
V 22 -17454.130391  11756.880921 -20132.415798       .014982                    
P 23  22949.125296  -2247.071295 -13454.515934    183.968588                    
V 23  15468.793725   6906.784778  25174.717594       .033617                    
P 24 -13311.461085   9581.275324 -20742.380299     16.966386                    
V 24  -4968.099323 -26309.318403  -8594.350865       .029157                    
P 25   9640.483158 -14812.805813 -19509.252638    376.709107                    
V 25   8847.387134  23972.751652 -13429.536872       .163650                    
P 26 -25238.405702  -9206.563040    -33.455886   -320.841179                    
V 26    -18.365878  -1429.517828 -32071.169438      -.222292                    
P 27   5064.951397 -20691.683351 -15072.855361    124.098091                    
V 27   7669.615339  19025.943641 -22805.005408       .023498                    
P 28   8497.946989 -20634.657697  14474.356358     -3.439768                    
V 28  15032.758482 -10027.971187 -24019.087266      -.007439                    
P 29 -24332.901106 -10445.717018  -3716.113001      4.613287                    
V 29   5159.408409     -5.971751 -31660.465129       .004567                    
P 30 -19480.606259  17910.654696   1077.294263     40.202898                    
V 30  -1095.650902  -3633.043056  31477.287008       .010629                    
P 31   8097.549749  24952.834199  -3701.464618     15.066602                    
V 31  -1662.728182   5429.853876  31394.075706      -.010405                    
P 32   6359.114685  14050.890687  22103.491335    522.562347                    
V 32 -21493.976226  16171.772928  -4059.868283       .200549                    
EOF
